ONEWEB-0320             
1 49190U 21083E   25336.62967166  .00000019  00000+0  14725-4 0  9991
2 49190  87.9185  14.5101 0001750  96.0527 264.0805 13.18683901204075
ONEWEB-0321             
1 49191U 21083F   25336.46054620  .00000068  00000+0  13602-3 0  9992
2 49191  87.9194 313.6669 0002029  78.2864 281.8497 13.20770036210861
ONEWEB-0322             
1 49192U 21083G   25336.76956892  .00000079  00000+0  18134-3 0  9995
2 49192  87.8977 359.2952 0002199  87.1801 272.9579 13.13469617205137
ONEWEB-0324             
1 49193U 21083H   25336.84326742  .00000118  00000+0  26734-3 0  9999
2 49193  87.9192  14.4448 0001654  92.8674 267.2648 13.18684465204121
ONEWEB-0325             
1 49194U 21083J   25336.61894792  .00000064  00000+0  12877-3 0  9993
2 49194  87.9191  14.5085 0001810  95.7427 264.3911 13.18685594204104
ONEWEB-0326             
1 49195U 21083K   25336.63392500 -.00000018  00000+0 -79530-4 0  9997
2 49195  87.9190  14.4924 0001744 108.4780 251.6542 13.18684763204099
ONEWEB-0327             
1 49196U 21083L   25336.63364394  .00000013  00000+0  98639-6 0  9994
2 49196  87.9183  14.5128 0001856 109.2668 250.8665 13.18684466204117
ONEWEB-0328             
1 49197U 21083M   25336.83558752  .00000388  00000+0  10274-2 0  9990
2 49197  87.8991 359.2286 0001621  90.8999 269.2316 13.13470656205128
